[{"OBJECT_NAME":"CUTE-1.7+APD II (CO-65)","OBJECT_ID":"2008-021C","EPOCH":"2026-03-03T21:00:52.108704","MEAN_MOTION":15.08270933,"ECCENTRICITY":0.0010278,"INCLINATION":97.8198,"RA_OF_ASC_NODE":42.2431,"ARG_OF_PERICENTER":36.774,"MEAN_ANOMALY":323.4191,"EPHEMERIS_TYPE":0,"CLASSIFICATION_TYPE":"U","NORAD_CAT_ID":32785,"ELEMENT_SET_NO":999,"REV_AT_EPOCH":96931,"BSTAR":0.0006301,"MEAN_MOTION_DOT":9.717e-5,"MEAN_MOTION_DDOT":0},{"OBJECT_NAME":"SEEDS II (CO-66)","OBJECT_ID":"2008-021J","EPOCH":"2026-03-03T12:10:28.642944","MEAN_MOTION":15.28751446,"ECCENTRICITY":0.00025637,"INCLINATION":97.7506,"RA_OF_ASC_NODE":55.6816,"ARG_OF_PERICENTER":18.3674,"MEAN_ANOMALY":341.7657,"EPHEMERIS_TYPE":0,"CLASSIFICATION_TYPE":"U","NORAD_CAT_ID":32791,"ELEMENT_SET_NO":999,"REV_AT_EPOCH":97112,"BSTAR":0.00086000582,"MEAN_MOTION_DOT":0.0002401,"MEAN_MOTION_DDOT":0},{"OBJECT_NAME":"YUBILEINY (RS30)","OBJECT_ID":"2008-025A","EPOCH":"2026-03-03T21:55:17.730624","MEAN_MOTION":12.43176325,"ECCENTRICITY":0.0019319,"INCLINATION":82.4985,"RA_OF_ASC_NODE":60.9174,"ARG_OF_PERICENTER":177.8565,"MEAN_ANOMALY":182.2601,"EPHEMERIS_TYPE":0,"CLASSIFICATION_TYPE":"U","NORAD_CAT_ID":32953,"ELEMENT_SET_NO":999,"REV_AT_EPOCH":80661,"BSTAR":0.00081901,"MEAN_MOTION_DOT":1.24e-6,"MEAN_MOTION_DDOT":0},{"OBJECT_NAME":"KKS-1 (KISEKI)","OBJECT_ID":"2009-002H","EPOCH":"2026-03-03T17:29:49.373088","MEAN_MOTION":14.82801526,"ECCENTRICITY":0.0006473,"INCLINATION":98.119,"RA_OF_ASC_NODE":343.5338,"ARG_OF_PERICENTER":274.4198,"MEAN_ANOMALY":85.6275,"EPHEMERIS_TYPE":0,"CLASSIFICATION_TYPE":"U","NORAD_CAT_ID":33499,"ELEMENT_SET_NO":999,"REV_AT_EPOCH":92056,"BSTAR":0.00032193,"MEAN_MOTION_DOT":2.549e-5,"MEAN_MOTION_DDOT":0},{"OBJECT_NAME":"SWISSCUBE","OBJECT_ID":"2009-051B","EPOCH":"2026-03-03T15:51:59.484960","MEAN_MOTION":14.62239489,"ECCENTRICITY":0.0006664,"INCLINATION":98.4105,"RA_OF_ASC_NODE":328.697,"ARG_OF_PERICENTER":170.6668,"MEAN_ANOMALY":189.4657,"EPHEMERIS_TYPE":0,"CLASSIFICATION_TYPE":"U","NORAD_CAT_ID":35932,"ELEMENT_SET_NO":999,"REV_AT_EPOCH":87373,"BSTAR":0.00033546,"MEAN_MOTION_DOT":1.642e-5,"MEAN_MOTION_DDOT":0},{"OBJECT_NAME":"BEESAT-1","OBJECT_ID":"2009-051C","EPOCH":"2026-03-03T16:26:51.471744","MEAN_MOTION":14.6151624,"ECCENTRICITY":0.0004889,"INCLINATION":98.4035,"RA_OF_ASC_NODE":328.5738,"ARG_OF_PERICENTER":181.8216,"MEAN_ANOMALY":178.2968,"EPHEMERIS_TYPE":0,"CLASSIFICATION_TYPE":"U","NORAD_CAT_ID":35933,"ELEMENT_SET_NO":999,"REV_AT_EPOCH":87377,"BSTAR":0.00028744,"MEAN_MOTION_DOT":1.377e-5,"MEAN_MOTION_DDOT":0},{"OBJECT_NAME":"ITUPSAT1","OBJECT_ID":"2009-051E","EPOCH":"2026-03-03T17:18:48.685248","MEAN_MOTION":14.60252771,"ECCENTRICITY":0.0006873,"INCLINATION":98.4123,"RA_OF_ASC_NODE":327.9111,"ARG_OF_PERICENTER":197.5625,"MEAN_ANOMALY":162.5338,"EPHEMERIS_TYPE":0,"CLASSIFICATION_TYPE":"U","NORAD_CAT_ID":35935,"ELEMENT_SET_NO":999,"REV_AT_EPOCH":87334,"BSTAR":0.00027434,"MEAN_MOTION_DOT":1.275e-5,"MEAN_MOTION_DDOT":0},{"OBJECT_NAME":"XIWANG-1 (HOPE-1)","OBJECT_ID":"2009-072B","EPOCH":"2026-03-03T19:59:34.649088","MEAN_MOTION":13.16437439,"ECCENTRICITY":0.0008041,"INCLINATION":100.3903,"RA_OF_ASC_NODE":18.4066,"ARG_OF_PERICENTER":111.9992,"MEAN_ANOMALY":248.1975,"EPHEMERIS_TYPE":0,"CLASSIFICATION_TYPE":"U","NORAD_CAT_ID":36122,"ELEMENT_SET_NO":999,"REV_AT_EPOCH":77914,"BSTAR":0.00096812,"MEAN_MOTION_DOT":3.25e-6,"MEAN_MOTION_DDOT":0},{"OBJECT_NAME":"O/OREOS (USA 219)","OBJECT_ID":"2010-062C","EPOCH":"2026-03-03T18:28:02.137152","MEAN_MOTION":14.93242441,"ECCENTRICITY":0.0016922,"INCLINATION":71.9725,"RA_OF_ASC_NODE":319.0425,"ARG_OF_PERICENTER":266.6076,"MEAN_ANOMALY":93.3159,"EPHEMERIS_TYPE":0,"CLASSIFICATION_TYPE":"U","NORAD_CAT_ID":37224,"ELEMENT_SET_NO":999,"REV_AT_EPOCH":10090,"BSTAR":0.00033093,"MEAN_MOTION_DOT":3.411e-5,"MEAN_MOTION_DDOT":0},{"OBJECT_NAME":"JUGNU","OBJECT_ID":"2011-058B","EPOCH":"2026-03-03T17:11:44.527776","MEAN_MOTION":14.13737595,"ECCENTRICITY":0.0018654,"INCLINATION":19.9595,"RA_OF_ASC_NODE":229.1867,"ARG_OF_PERICENTER":351.7524,"MEAN_ANOMALY":111.4447,"EPHEMERIS_TYPE":0,"CLASSIFICATION_TYPE":"U","NORAD_CAT_ID":37839,"ELEMENT_SET_NO":999,"REV_AT_EPOCH":74408,"BSTAR":0.00013477,"MEAN_MOTION_DOT":5.25e-6,"MEAN_MOTION_DDOT":0},{"OBJECT_NAME":"SRMSAT","OBJECT_ID":"2011-058D","EPOCH":"2026-03-03T04:52:07.731264","MEAN_MOTION":14.11544671,"ECCENTRICITY":0.00118867,"INCLINATION":19.9732,"RA_OF_ASC_NODE":340.9649,"ARG_OF_PERICENTER":118.1185,"MEAN_ANOMALY":34.7703,"EPHEMERIS_TYPE":0,"CLASSIFICATION_TYPE":"U","NORAD_CAT_ID":37841,"ELEMENT_SET_NO":999,"REV_AT_EPOCH":74282,"BSTAR":0.0001115628,"MEAN_MOTION_DOT":4.7e-6,"MEAN_MOTION_DDOT":0},{"OBJECT_NAME":"STRAND-1","OBJECT_ID":"2013-009E","EPOCH":"2026-03-03T10:29:46.116384","MEAN_MOTION":14.37088223,"ECCENTRICITY":0.00086559,"INCLINATION":98.3881,"RA_OF_ASC_NODE":245.2845,"ARG_OF_PERICENTER":180.0154,"MEAN_ANOMALY":180.1035,"EPHEMERIS_TYPE":0,"CLASSIFICATION_TYPE":"U","NORAD_CAT_ID":39090,"ELEMENT_SET_NO":999,"REV_AT_EPOCH":68187,"BSTAR":0.00017733315,"MEAN_MOTION_DOT":4.84e-6,"MEAN_MOTION_DDOT":0},{"OBJECT_NAME":"ZACUBE-1 (TSHEPISOSAT)","OBJECT_ID":"2013-066B","EPOCH":"2026-03-03T20:39:41.675328","MEAN_MOTION":15.00250727,"ECCENTRICITY":0.0041678,"INCLINATION":97.8183,"RA_OF_ASC_NODE":24.6561,"ARG_OF_PERICENTER":239.6691,"MEAN_ANOMALY":120.0407,"EPHEMERIS_TYPE":0,"CLASSIFICATION_TYPE":"U","NORAD_CAT_ID":39417,"ELEMENT_SET_NO":999,"REV_AT_EPOCH":66493,"BSTAR":0.00054155,"MEAN_MOTION_DOT":6.842e-5,"MEAN_MOTION_DDOT":0},{"OBJECT_NAME":"GOMX-1","OBJECT_ID":"2013-066Q","EPOCH":"2026-03-03T19:56:50.319744","MEAN_MOTION":14.69069925,"ECCENTRICITY":0.0130614,"INCLINATION":97.657,"RA_OF_ASC_NODE":269.9016,"ARG_OF_PERICENTER":56.1579,"MEAN_ANOMALY":305.1979,"EPHEMERIS_TYPE":0,"CLASSIFICATION_TYPE":"U","NORAD_CAT_ID":39430,"ELEMENT_SET_NO":999,"REV_AT_EPOCH":65444,"BSTAR":0.00034457,"MEAN_MOTION_DOT":2.255e-5,"MEAN_MOTION_DDOT":0},{"OBJECT_NAME":"CUBEBUG-2 (LO-74)","OBJECT_ID":"2013-066AA","EPOCH":"2026-03-03T20:47:50.197344","MEAN_MOTION":14.92865511,"ECCENTRICITY":0.0059389,"INCLINATION":97.8812,"RA_OF_ASC_NODE":11.5305,"ARG_OF_PERICENTER":18.3107,"MEAN_ANOMALY":342.0232,"EPHEMERIS_TYPE":0,"CLASSIFICATION_TYPE":"U","NORAD_CAT_ID":39440,"ELEMENT_SET_NO":999,"REV_AT_EPOCH":66127,"BSTAR":0.00083132,"MEAN_MOTION_DOT":8.858e-5,"MEAN_MOTION_DDOT":0},{"OBJECT_NAME":"FUNCUBE-1 (AO-73)","OBJECT_ID":"2013-066AE","EPOCH":"2026-03-03T08:04:48.099648","MEAN_MOTION":15.07759862,"ECCENTRICITY":0.00366102,"INCLINATION":97.8168,"RA_OF_ASC_NODE":31.7675,"ARG_OF_PERICENTER":201.255,"MEAN_ANOMALY":158.7158,"EPHEMERIS_TYPE":0,"CLASSIFICATION_TYPE":"U","NORAD_CAT_ID":39444,"ELEMENT_SET_NO":999,"REV_AT_EPOCH":66370,"BSTAR":0.00069419495,"MEAN_MOTION_DOT":0.00010715,"MEAN_MOTION_DDOT":0}]
